{
  "norad_id": 50189,
  "name": "STARLINK-3276",
  "history": [
    {
      "epoch": "2026-03-28T22:17:12.488928Z",
      "apogee_km": 527.5716829414987,
      "perigee_km": 525.0860752250283,
      "latitude_deg": -2.3080563195643705e-05,
      "longitude_deg": 0.6938232450023356,
      "height_km": 528.3318114431088,
      "semi_major_axis_km": 6904.465879083263,
      "eccentricity": 0.00018,
      "inclination_deg": 53.2137,
      "raan_deg": 161.3379,
      "arg_perigee_deg": 207.4181,
      "mean_anomaly_deg": 152.6718,
      "mean_motion_rev_day": 15.13239365
    }
  ]
}