{"fetched_at":"2026-03-30T06:02:59Z","count":15439,"tles":[{"name":"STARLINK-3276","line1":"1 50189U 21125AK  26087.92861677  .00009216  00000+0  52869-3 0  9993","line2":"2 50189  53.2137 161.3379 0001800 207.4181 152.6718 15.13239365239561","category":"Starlink"}]}